NORAD_CAT_ID,OBJECT_NAME,OBJECT_TYPE,EPOCH,MEAN_MOTION,ECCENTRICITY,INCLINATION,RA_OF_ASC_NODE,ARG_OF_PERICENTER,MEAN_ANOMALY,BSTAR,MEAN_MOTION_DOT,MEAN_MOTION_DDOT,TLE_LINE0,TLE_LINE1,TLE_LINE2,SEMIMAJOR_AXIS,PERIOD,APOGEE,PERIGEE,DECAYED
55314.0,STARLINK-5305,PAYLOAD,2023-02-25 18:27:19,15.69939951,0.0002212,70.0016,324.2058,262.43,97.6645,0.00016645,0.00019859,0.0,0 STARLINK-5305,1 55314U 23010AX  23056.76897024  .00019859  00000-0  16645-3 0  9990,2 55314  70.0016 324.2058 0002212 262.4300  97.6645 15.69939951  6350,6737.206,91.723,360.561,357.581,0.0
55314.0,STARLINK-5305,PAYLOAD,2023-02-25 19:59:03,15.69929851,0.0003662,70.0,324.0257,248.2921,111.7885,8.3339e-05,9.823e-05,0.0,0 STARLINK-5305,1 55314U 23010AX  23056.83268462  .00009823  00000-0  83339-4 0  9991,2 55314  70.0000 324.0257 0003662 248.2921 111.7885 15.69929851  7558,6737.235,91.724,361.567,356.633,0.0
55314.0,STARLINK-5305,PAYLOAD,2023-02-26 03:37:49,15.69940351,0.0003182,70.0018,323.1304,259.6999,100.3838,0.0001286,0.00015288,0.0,0 STARLINK-5305,1 55314U 23010AX  23057.15126727  .00015288  00000-0  12860-3 0  9996,2 55314  70.0018 323.1304 0003182 259.6999 100.3838 15.69940351  6412,6737.205,91.723,361.213,356.926,0.0
55314.0,STARLINK-5305,PAYLOAD,2023-02-26 05:09:34,15.69951733,0.00032,70.0022,322.9515,258.4609,101.6228,0.00017561,0.00020979,0.0,0 STARLINK-5305,1 55314U 23010AX  23057.21498195  .00020979  00000-0  17561-3 0  9990,2 55314  70.0022 322.9515 0003200 258.4609 101.6228 15.69951733  7610,6737.172,91.723,361.193,356.881,0.0
55314.0,STARLINK-5305,PAYLOAD,2023-02-26 17:23:35,15.69939778,0.0003111,70.0005,321.5177,259.5212,100.5634,0.00022794,0.00027301,0.0,0 STARLINK-5305,1 55314U 23010AX  23057.72472069  .00027301  00000-0  22794-3 0  9998,2 55314  70.0005 321.5177 0003111 259.5212 100.5634 15.69939778  6504,6737.206,91.723,361.167,356.975,0.0
55314.0,STARLINK-5305,PAYLOAD,2023-02-26 23:30:36,15.69940706,0.0002869,70.0008,320.8007,265.691,94.3958,0.00017206,0.00020539,0.0,0 STARLINK-5305,1 55314U 23010AX  23057.97958562  .00020539  00000-0  17206-3 0  9990,2 55314  70.0008 320.8007 0002869 265.6910  94.3958 15.69940706  6549,6737.204,91.723,361.002,357.136,0.0
55314.0,STARLINK-5305,PAYLOAD,2023-02-27 02:34:06,15.69948044,0.0003495,70.0007,320.4414,263.8064,96.2733,0.00027704,0.00033265,0.0,0 STARLINK-5305,1 55314U 23010AX  23058.10701793  .00033265  00000-0  27704-3 0  9992,2 55314  70.0007 320.4414 0003495 263.8064  96.2733 15.69948044  7751,6737.183,91.723,361.402,356.693,0.0
55314.0,STARLINK-5305,PAYLOAD,2023-02-27 16:19:51,15.69979037,0.0003327,70.0007,318.8289,260.0836,99.9985,0.00029365,0.00035325,0.0,0 STARLINK-5305,1 55314U 23010AX  23058.68045660  .00035325  00000-0  29365-3 0  9993,2 55314  70.0007 318.8289 0003327 260.0836  99.9985 15.69979037  7847,6737.094,91.721,361.2,356.718,0.0
55314.0,STARLINK-5305,PAYLOAD,2023-02-28 10:40:53,15.69910458,0.0004725,70.0027,316.6813,271.2269,88.8385,0.00010406,0.00012314,0.0,0 STARLINK-5305,1 55314U 23010AX  23059.44506503  .00012314  00000-0  10406-3 0  9995,2 55314  70.0027 316.6813 0004725 271.2269  88.8385 15.69910458  7961,6737.29,91.725,362.339,355.972,0.0
55314.0,STARLINK-5305,PAYLOAD,2023-02-28 19:51:26,15.69871937,0.0002605,70.0011,315.6034,276.0856,84.0043,6.3004e-05,7.353e-05,0.0,0 STARLINK-5305,1 55314U 23010AX  23059.82738635  .00007353  00000-0  63004-4 0  9990,2 55314  70.0011 315.6034 0002605 276.0856  84.0043 15.69871937  8023,6737.4,91.727,361.02,357.51,0.0
55314.0,STARLINK-5305,PAYLOAD,2023-03-01 03:30:27,15.68649774,0.000681,70.0017,314.7096,199.794,160.2992,-0.0070625,-0.00739755,0.0,0 STARLINK-5305,1 55314U 23010AX  23060.14614922 -.00739755  00000-0 -70625-2 0  9994,2 55314  70.0017 314.7096 0006810 199.7940 160.2992 15.68649774  6887,6740.899,91.799,367.355,358.174,0.0
55314.0,STARLINK-5305,PAYLOAD,2023-03-01 14:00:01,15.69879236,0.000328,70.0007,313.4795,255.2144,56.1203,0.0010887,0.00132533,0.0,0 STARLINK-5305,1 55314U 23010AX  23060.58334491  .00132533  00000-0  10887-2 0  9995,2 55314  70.0007 313.4795 0003280 255.2144  56.1203 15.69879236  6955,6737.38,91.727,361.454,357.035,0.0
55314.0,STARLINK-5305,PAYLOAD,2023-03-01 14:12:26,15.69995864,0.0003287,70.0022,313.4557,252.0071,108.0767,0.0005255,0.00063643,0.0,0 STARLINK-5305,1 55314U 23010AX  23060.59197003  .00063643  00000-0  52550-3 0  9991,2 55314  70.0022 313.4557 0003287 252.0071 108.0767 15.69995864  6957,6737.046,91.72,361.125,356.696,0.0
55314.0,STARLINK-5305,PAYLOAD,2023-03-02 19:15:43,15.69935284,0.000289,70.0009,310.0494,262.8999,97.1868,1.4508e-05,1.533e-05,0.0,0 STARLINK-5305,1 55314U 23010AX  23061.80258801  .00001533  00000-0  14508-4 0  9992,2 55314  70.0009 310.0494 0002890 262.8999  97.1868 15.69935284  8336,6737.219,91.724,361.031,357.137,0.0
55314.0,STARLINK-5305,PAYLOAD,2023-03-03 01:22:43,15.69942385,0.000309,70.0012,309.3353,263.1344,96.95,4.4483e-05,5.143e-05,0.0,0 STARLINK-5305,1 55314U 23010AX  23062.05745178  .00005143  00000-0  44483-4 0  9994,2 55314  70.0012 309.3353 0003090 263.1344  96.9500 15.69942385  8370,6737.199,91.723,361.146,356.982,0.0
55314.0,STARLINK-5305,PAYLOAD,2023-03-03 15:08:29,15.69938811,0.0002679,70.0023,307.7239,254.6927,105.3973,4.3173e-05,4.984e-05,0.0,0 STARLINK-5305,1 55314U 23010AX  23062.63090102  .00004984  00000-0  43173-4 0  9995,2 55314  70.0023 307.7239 0002679 254.6927 105.3973 15.69938811  7277,6737.209,91.723,360.879,357.269,0.0
55314.0,STARLINK-5305,PAYLOAD,2023-03-03 22:47:15,15.69936019,0.0003322,70.0009,306.8259,264.8903,95.1913,4.9049e-05,5.692e-05,0.0,0 STARLINK-5305,1 55314U 23010AX  23062.94948629  .00005692  00000-0  49049-4 0  9990,2 55314  70.0009 306.8259 0003322 264.8903  95.1913 15.69936019  7320,6737.217,91.723,361.32,356.844,0.0
55314.0,STARLINK-5305,PAYLOAD,2023-03-04 01:50:46,15.69917072,0.0003048,70.0007,306.4674,265.8793,94.2055,-2.6358e-05,-3.379e-05,0.0,0 STARLINK-5305,1 55314U 23010AX  23063.07692479 -.00003379  00000-0 -26358-4 0  9994,2 55314  70.0007 306.4674 0003048 265.8793  94.2055 15.69917072  7345,6737.271,91.725,361.19,357.083,0.0
55314.0,STARLINK-5305,PAYLOAD,2023-03-04 17:08:17,15.69918816,0.0003261,69.9997,304.6771,258.523,101.56,1.8895e-05,2.059e-05,0.0,0 STARLINK-5305,1 55314U 23010AX  23063.71409288  .00002059  00000-0  18895-4 0  9998,2 55314  69.9997 304.6771 0003261 258.5230 101.5600 15.69918816  8638,6737.266,91.724,361.328,356.934,0.0
55314.0,STARLINK-5305,PAYLOAD,2023-03-04 18:40:02,15.69920869,0.0003161,70.0004,304.4976,258.4713,101.6128,3.1702e-05,3.6e-05,0.0,0 STARLINK-5305,1 55314U 23010AX  23063.77780972  .00003600  00000-0  31702-4 0  9991,2 55314  70.0004 304.4976 0003161 258.4713 101.6128 15.69920869  7455,6737.26,91.724,361.255,356.996,0.0
55314.0,STARLINK-5305,PAYLOAD,2023-03-05 22:11:34,15.6995339,0.0003587,70.0007,301.2744,266.4798,93.5988,0.00013205,0.00015715,0.0,0 STARLINK-5305,1 55314U 23010AX  23064.92470397  .00015715  00000-0  13205-3 0  9993,2 55314  70.0007 301.2744 0003587 266.4798  93.5988 15.69953390  7638,6737.167,91.722,361.449,356.616,0.0
55314.0,STARLINK-5305,PAYLOAD,2023-03-06 01:15:04,15.69922389,0.0003156,69.9991,300.915,264.9787,95.1049,3.3869e-06,1.95e-06,0.0,0 STARLINK-5305,1 55314U 23010AX  23065.05214066  .00000195  00000-0  33869-5 0  9993,2 55314  69.9991 300.9150 0003156 264.9787  95.1049 15.69922389  7659,6737.256,91.724,361.247,356.995,0.0
55314.0,STARLINK-5305,PAYLOAD,2023-03-06 19:36:07,15.69916423,0.0003533,70.0003,298.7655,269.8326,90.2465,2.1608e-05,2.385e-05,0.0,0 STARLINK-5305,1 55314U 23010AX  23065.81674783  .00002385  00000-0  21608-4 0  9993,2 55314  70.0003 298.7655 0003533 269.8326  90.2465 15.69916423  7775,6737.273,91.725,361.518,356.758,0.0
55314.0,STARLINK-5305,PAYLOAD,2023-03-07 01:43:07,15.69939021,0.0002787,70.0016,298.0482,281.3151,78.7732,0.00019848,0.00023733,0.0,0 STARLINK-5305,1 55314U 23010AX  23066.07161574  .00023733  00000-0  19848-3 0  9993,2 55314  70.0016 298.0482 0002787 281.3151  78.7732 15.69939021  7817,6737.208,91.723,360.951,357.196,0.0
55314.0,STARLINK-5305,PAYLOAD,2023-03-07 21:35:53,15.69938502,0.0003147,70.0013,295.7223,267.4922,92.5913,0.00011218,0.00013305,0.0,0 STARLINK-5305,1 55314U 23010AX  23066.89992766  .00013305  00000-0  11218-3 0  9995,2 55314  70.0013 295.7223 0003147 267.4922  92.5913 15.69938502  7945,6737.21,91.723,361.195,356.955,0.0
55314.0,STARLINK-5305,PAYLOAD,2023-03-08 14:25:10,15.69926496,0.0003086,70.0004,293.7498,269.3611,90.7231,6.5463e-05,7.666e-05,0.0,0 STARLINK-5305,1 55314U 23010AX  23067.60081415  .00007666  00000-0  65463-4 0  9990,2 55314  70.0004 293.7498 0003086 269.3611  90.7231 15.69926496  8050,6737.244,91.724,361.188,357.03,0.0
55314.0,STARLINK-5305,PAYLOAD,2023-03-09 17:56:42,15.69937096,0.0003529,70.0001,290.5253,257.7728,102.3072,3.985e-05,4.584e-05,0.0,0 STARLINK-5305,1 55314U 23010AX  23068.74770907  .00004584  00000-0  39850-4 0  9994,2 55314  70.0001 290.5253 0003529 257.7728 102.3072 15.69937096  8234,6737.214,91.723,361.457,356.701,0.0
55314.0,STARLINK-5305,PAYLOAD,2023-03-09 21:00:12,15.69941695,0.0003602,69.9988,290.1667,261.8487,98.23,0.00010073,0.00011926,0.0,0 STARLINK-5305,1 55314U 23010AX  23068.87514144  .00011926  00000-0  10073-3 0  9990,2 55314  69.9988 290.1667 0003602 261.8487  98.2300 15.69941695  9441,6737.201,91.723,361.493,356.639,0.0
55314.0,STARLINK-5305,PAYLOAD,2023-03-10 00:03:43,15.6991705,0.0002563,70.0009,289.8094,262.4701,97.6203,4.124e-05,4.747e-05,0.0,0 STARLINK-5305,1 55314U 23010AX  23069.00258174  .00004747  00000-0  41240-4 0  9998,2 55314  70.0009 289.8094 0002563 262.4701  97.6203 15.69917050  8271,6737.271,91.725,360.863,357.41,0.0
55314.0,STARLINK-5305,PAYLOAD,2023-03-10 07:42:29,15.69914838,0.0002247,70.0009,288.9149,267.165,92.9289,0.00010068,0.00011904,0.0,0 STARLINK-5305,1 55314U 23010AX  23069.32117016  .00011904  00000-0  10068-3 0  9998,2 55314  70.0009 288.9149 0002247 267.1650  92.9289 15.69914838  9517,6737.278,91.725,360.657,357.629,0.0
